start=new Date('2021-09-13T00:00:00.000Z').valueOf();
sats=[{"FILE":"3114195","RCS_SIZE":"LARGE","TLE_LINE1":"1 45572U 20025AT  21255.92804866  .00000955  00000-0  83034-4 0  9991","MEAN_ELEMENT_THEORY":"SGP4","OBJECT_NAME":"STARLINK-1320","REV_AT_EPOCH":"7851","SITE":"AFETR","PERIOD":"95.593","INCLINATION":"53.0538","EPHEMERIS_TYPE":"0","PERIAPSIS":"546.414","DECAY_DATE":null,"MEAN_ANOMALY":"289.0761","LAUNCH_DATE":"2020-04-22","ARG_OF_PERICENTER":"71.0356","MEAN_MOTION_DDOT":"0.0000000000000","OBJECT_ID":"2020-025AT","CLASSIFICATION_TYPE":"U","TLE_LINE2":"2 45572  53.0538 233.3170 0001179  71.0356 289.0761 15.06394330 78516","TIME_SYSTEM":"UTC","ELEMENT_SET_NO":"999","REF_FRAME":"TEME","MEAN_MOTION_DOT":"0.00000955","COUNTRY_CODE":"US","MEAN_MOTION":"15.06394330","BSTAR":"0.00008303400000","APOAPSIS":"548.047","NORAD_CAT_ID":"45572","SEMIMAJOR_AXIS":"6925.366","CENTER_NAME":"EARTH","RA_OF_ASC_NODE":"233.3170","OBJECT_TYPE":"PAYLOAD","EPOCH":"2021-09-12T22:16:23.404224","ECCENTRICITY":"0.00011790","GP_ID":"184598079"},{"INCLINATION":"53.0537","EPHEMERIS_TYPE":"0","PERIAPSIS":"546.161","DECAY_DATE":null,"LAUNCH_DATE":"2020-04-22","ARG_OF_PERICENTER":"74.3307","MEAN_ANOMALY":"285.7852","MEAN_MOTION_DDOT":"0.0000000000000","OBJECT_ID":"2020-025AU","FILE":"3114195","RCS_SIZE":"LARGE","MEAN_ELEMENT_THEORY":"SGP4","TLE_LINE1":"1 45573U 20025AU  21255.44150606 -.00000338  00000-0 -37878-5 0  9998","OBJECT_NAME":"STARLINK-1321","REV_AT_EPOCH":"7813","PERIOD":"95.592","SITE":"AFETR","APOAPSIS":"548.289","SEMIMAJOR_AXIS":"6925.360","NORAD_CAT_ID":"45573","CENTER_NAME":"EARTH","EPOCH":"2021-09-12T10:35:46.123584","OBJECT_TYPE":"PAYLOAD","RA_OF_ASC_NODE":"235.4955","ECCENTRICITY":"0.00015360","GP_ID":"184598330","TIME_SYSTEM":"UTC","TLE_LINE2":"2 45573  53.0537 235.4955 0001536  74.3307 285.7852 15.06396293 78131","CLASSIFICATION_TYPE":"U","ELEMENT_SET_NO":"999","REF_FRAME":"TEME","MEAN_MOTION_DOT":"-0.00000338","COUNTRY_CODE":"US","MEAN_MOTION":"15.06396293","BSTAR":"-0.00000378780000"},{"GP_ID":"184599068","ECCENTRICITY":"0.00011650","EPOCH":"2021-09-12T22:21:41.128128","OBJECT_TYPE":"PAYLOAD","RA_OF_ASC_NODE":"233.2962","CENTER_NAME":"EARTH","NORAD_CAT_ID":"45574","SEMIMAJOR_AXIS":"6925.352","APOAPSIS":"548.024","BSTAR":"0.00003595600000","MEAN_MOTION":"15.06398932","MEAN_MOTION_DOT":"0.00000254","COUNTRY_CODE":"US","REF_FRAME":"TEME","ELEMENT_SET_NO":"999","TIME_SYSTEM":"UTC","TLE_LINE2":"2 45574  53.0538 233.2962 0001165  66.9900 293.1212 15.06398932 78529","CLASSIFICATION_TYPE":"U","OBJECT_ID":"2020-025AV","MEAN_MOTION_DDOT":"0.0000000000000","ARG_OF_PERICENTER":"66.9900","LAUNCH_DATE":"2020-04-22","MEAN_ANOMALY":"293.1212","DECAY_DATE":null,"PERIAPSIS":"546.410","EPHEMERIS_TYPE":"0","INCLINATION":"53.0538","SITE":"AFETR","PERIOD":"95.592","REV_AT_EPOCH":"7852","OBJECT_NAME":"STARLINK-1324","MEAN_ELEMENT_THEORY":"SGP4","TLE_LINE1":"1 45574U 20025AV  21255.93172602  .00000254  00000-0  35956-4 0  9992","RCS_SIZE":"LARGE","FILE":"3114195"},{"INCLINATION":"53.0003","DECAY_DATE":null,"PERIAPSIS":"542.123","EPHEMERIS_TYPE":"0","LAUNCH_DATE":"2020-04-22","ARG_OF_PERICENTER":"66.7246","MEAN_ANOMALY":"293.3886","OBJECT_ID":"2020-025AW","MEAN_MOTION_DDOT":"0.0000000000000","FILE":"3114195","TLE_LINE1":"1 45575U 20025AW  21255.93572388  .00005474  00000-0  37243-3 0  9997","MEAN_ELEMENT_THEORY":"SGP4","RCS_SIZE":"LARGE","REV_AT_EPOCH":"7854","OBJECT_NAME":"STARLINK-1326","PERIOD":"95.506","SITE":"AFETR","APOAPSIS":"544.005","CENTER_NAME":"EARTH","SEMIMAJOR_AXIS":"6921.199","NORAD_CAT_ID":"45575","ECCENTRICITY":"0.00013600","EPOCH":"2021-09-12T22:27:26.543232","OBJECT_TYPE":"PAYLOAD","RA_OF_ASC_NODE":"230.5531","GP_ID":"184597329","TIME_SYSTEM":"UTC","TLE_LINE2":"2 45575  53.0003 230.5531 0001360  66.7246 293.3886 15.07754926 78548","CLASSIFICATION_TYPE":"U","REF_FRAME":"TEME","ELEMENT_SET_NO":"999","COUNTRY_CODE":"US","MEAN_MOTION_DOT":"0.00005474","BSTAR":"0.00037243000000","MEAN_MOTION":"15.07754926"},{"DECAY_DATE":null,"EPHEMERIS_TYPE":"0","PERIAPSIS":"546.318","INCLINATION":"53.0533","OBJECT_ID":"2020-025AX","MEAN_MOTION_DDOT":"0.0000000000000","MEAN_ANOMALY":"295.3843","LAUNCH_DATE":"2020-04-22","ARG_OF_PERICENTER":"64.7279","TLE_LINE1":"1 45576U 20025AX  21255.89117947  .00000856  00000-0  76343-4 0  9993","MEAN_ELEMENT_THEORY":"SGP4","RCS_SIZE":"LARGE","FILE":"3114195","PERIOD":"95.592","SITE":"AFETR","REV_AT_EPOCH":"7851","OBJECT_NAME":"STARLINK-1328","CENTER_NAME":"EARTH","NORAD_CAT_ID":"45576","SEMIMAJOR_AXIS":"6925.342","APOAPSIS":"548.097","GP_ID":"184597579","ECCENTRICITY":"0.00012840","OBJECT_TYPE":"PAYLOAD","RA_OF_ASC_NODE":"233.4794","EPOCH":"2021-09-12T21:23:17.906208","REF_FRAME":"TEME","ELEMENT_SET_NO":"999","CLASSIFICATION_TYPE":"U","TIME_SYSTEM":"UTC","TLE_LINE2":"2 45576  53.0533 233.4794 0001284  64.7279 295.3843 15.06401988 78517","BSTAR":"0.00007634300000","MEAN_MOTION":"15.06401988","COUNTRY_CODE":"US","MEAN_MOTION_DOT":"0.00000856"},{"DECAY_DATE":null,"EPHEMERIS_TYPE":"0","PERIAPSIS":"546.292","INCLINATION":"53.0539","OBJECT_ID":"2020-025AY","MEAN_MOTION_DDOT":"0.0000000000000","LAUNCH_DATE":"2020-04-22","ARG_OF_PERICENTER":"68.9100","MEAN_ANOMALY":"291.2033","MEAN_ELEMENT_THEORY":"SGP4","TLE_LINE1":"1 45577U 20025AY  21255.71426890 -.00000544  00000-0 -17617-4 0  9990","RCS_SIZE":"LARGE","FILE":"3114195","SITE":"AFETR","PERIOD":"95.592","REV_AT_EPOCH":"7847","OBJECT_NAME":"STARLINK-1330","CENTER_NAME":"EARTH","SEMIMAJOR_AXIS":"6925.359","NORAD_CAT_ID":"45577","APOAPSIS":"548.155","GP_ID":"184598831","ECCENTRICITY":"0.00013450","EPOCH":"2021-09-12T17:08:32.832960","OBJECT_TYPE":"PAYLOAD","RA_OF_ASC_NODE":"234.2741","REF_FRAME":"TEME","ELEMENT_SET_NO":"999","TLE_LINE2":"2 45577  53.0539 234.2741 0001345  68.9100 291.2033 15.06396738 78479","TIME_SYSTEM":"UTC","CLASSIFICATION_TYPE":"U","BSTAR":"-0.00001761700000","MEAN_MOTION":"15.06396738","MEAN_MOTION_DOT":"-0.00000544","COUNTRY_CODE":"US"},{"SITE":"AFETR","PERIOD":"95.592","REV_AT_EPOCH":"7852","OBJECT_NAME":"STARLINK-1331","MEAN_ELEMENT_THEORY":"SGP4","TLE_LINE1":"1 45578U 20025AZ  21255.95016554  .00000913  00000-0  80200-4 0  9995","RCS_SIZE":"LARGE","FILE":"3114195","OBJECT_ID":"2020-025AZ","MEAN_MOTION_DDOT":"0.0000000000000","ARG_OF_PERICENTER":"75.7460","LAUNCH_DATE":"2020-04-22","MEAN_ANOMALY":"284.3697","DECAY_DATE":null,"PERIAPSIS":"546.182","EPHEMERIS_TYPE":"0","INCLINATION":"53.0544","BSTAR":"0.00008020000000","MEAN_MOTION":"15.06395698","COUNTRY_CODE":"US","MEAN_MOTION_DOT":"0.00000913","REF_FRAME":"TEME","ELEMENT_SET_NO":"999","TIME_SYSTEM":"UTC","TLE_LINE2":"2 45578  53.0544 233.2119 0001508  75.7460 284.3697 15.06395698 78529","CLASSIFICATION_TYPE":"U","GP_ID":"184598568","ECCENTRICITY":"0.00015080","EPOCH":"2021-09-12T22:48:14.302656","OBJECT_TYPE":"PAYLOAD","RA_OF_ASC_NODE":"233.2119","CENTER_NAME":"EARTH","NORAD_CAT_ID":"45578","SEMIMAJOR_AXIS":"6925.362","APOAPSIS":"548.271"},{"OBJECT_ID":"2020-025BA","MEAN_MOTION_DDOT":"0.0000000000000","MEAN_ANOMALY":"133.3082","LAUNCH_DATE":"2020-04-22","ARG_OF_PERICENTER":"226.7575","DECAY_DATE":null,"EPHEMERIS_TYPE":"0","PERIAPSIS":"544.455","INCLINATION":"53.0536","PERIOD":"95.592","SITE":"AFETR","REV_AT_EPOCH":"7898","OBJECT_NAME":"STARLINK-1332","TLE_LINE1":"1 45579U 20025BA  21255.34470717  .00000223  00000-0  33901-4 0  9994","MEAN_ELEMENT_THEORY":"SGP4","RCS_SIZE":"LARGE","FILE":"3114003","GP_ID":"184571120","ECCENTRICITY":"0.00039740","OBJECT_TYPE":"PAYLOAD","RA_OF_ASC_NODE":"195.9296","EPOCH":"2021-09-12T08:16:22.699488","CENTER_NAME":"EARTH","SEMIMAJOR_AXIS":"6925.342","NORAD_CAT_ID":"45579","APOAPSIS":"549.959","BSTAR":"0.00003390100000","MEAN_MOTION":"15.06402181","MEAN_MOTION_DOT":"0.00000223","COUNTRY_CODE":"US","REF_FRAME":"TEME","ELEMENT_SET_NO":"999","CLASSIFICATION_TYPE":"U","TLE_LINE2":"2 45579  53.0536 195.9296 0003974 226.7575 133.3082 15.06402181 78982","TIME_SYSTEM":"UTC"},{"MEAN_ELEMENT_THEORY":"SGP4","TLE_LINE1":"1 45580U 20025BB  21255.35948940 -.00001795  00000-0 -10163-3 0  9996","RCS_SIZE":"LARGE","FILE":"3114003","PERIOD":"95.592","SITE":"AFETR","REV_AT_EPOCH":"7828","OBJECT_NAME":"STARLINK-1333","DECAY_DATE":null,"PERIAPSIS":"546.452","EPHEMERIS_TYPE":"0","INCLINATION":"53.0524","OBJECT_ID":"2020-025BB","MEAN_MOTION_DDOT":"0.0000000000000","MEAN_ANOMALY":"296.8691","ARG_OF_PERICENTER":"63.2409","LAUNCH_DATE":"2020-04-22","REF_FRAME":"TEME","ELEMENT_SET_NO":"999","CLASSIFICATION_TYPE":"U","TLE_LINE2":"2 45580  53.0524 245.8646 0001078  63.2409 296.8691 15.06405050 78280","TIME_SYSTEM":"UTC","BSTAR":"-0.00010163000000","MEAN_MOTION":"15.06405050","COUNTRY_CODE":"US","MEAN_MOTION_DOT":"-0.00001795","CENTER_NAME":"EARTH","NORAD_CAT_ID":"45580","SEMIMAJOR_AXIS":"6925.333","APOAPSIS":"547.945","GP_ID":"184571370","ECCENTRICITY":"0.00010780","OBJECT_TYPE":"PAYLOAD","RA_OF_ASC_NODE":"245.8646","EPOCH":"2021-09-12T08:37:39.884160"},{"PERIAPSIS":"546.120","EPHEMERIS_TYPE":"0","DECAY_DATE":null,"INCLINATION":"53.0533","MEAN_MOTION_DDOT":"0.0000000000000","OBJECT_ID":"2020-025BC","LAUNCH_DATE":"2020-04-22","ARG_OF_PERICENTER":"67.1743","MEAN_ANOMALY":"292.9408","RCS_SIZE":"LARGE","TLE_LINE1":"1 45581U 20025BC  21255.36409089  .00000948  00000-0  82493-4 0  9997","MEAN_ELEMENT_THEORY":"SGP4","FILE":"3114003","SITE":"AFETR","PERIOD":"95.592","OBJECT_NAME":"STARLINK-1335","REV_AT_EPOCH":"7842","SEMIMAJOR_AXIS":"6925.324","NORAD_CAT_ID":"45581","CENTER_NAME":"EARTH","APOAPSIS":"548.258","GP_ID":"184569636","EPOCH":"2021-09-12T08:44:17.452896","RA_OF_ASC_NODE":"235.8455","OBJECT_TYPE":"PAYLOAD","ECCENTRICITY":"0.00015440","ELEMENT_SET_NO":"999","REF_FRAME":"TEME","TLE_LINE2":"2 45581  53.0533 235.8455 0001544  67.1743 292.9408 15.06407991 78425","TIME_SYSTEM":"UTC","CLASSIFICATION_TYPE":"U","MEAN_MOTION":"15.06407991","BSTAR":"0.00008249300000","COUNTRY_CODE":"US","MEAN_MOTION_DOT":"0.00000948"}];
